{
  "type": "FeatureCollection",
  "features": [
    {
      "type": "Feature",
      "properties": {
        "norad_id": 37312,
        "name": "COSMOS 2251 DEB",
        "group": "cosmos-2251-debris",
        "lat": -2.755435199299553,
        "lon": -137.4071180022016,
        "alt_km": 730.2797505371464,
        "timestamp": "2025-12-02T10:50:47.673380+00:00",
        "meta_object_name": "COSMOS 2251 DEB",
        "meta_object_id": "1993-036BKC",
        "meta_epoch": "2025-12-01T23:14:14.462016",
        "meta_mean_motion": 14.46068462,
        "meta_eccentricity": 0.001813,
        "meta_inclination": 74.0322,
        "meta_ra_of_asc_node": 224.2849,
        "meta_arg_of_pericenter": 328.509,
        "meta_mean_anomaly": 31.4981,
        "meta_ephemeris_type": 0,
        "meta_classification_type": "U",
        "meta_norad_cat_id": 37312,
        "meta_element_set_no": 999,
        "meta_rev_at_epoch": 86008,
        "meta_bstar": 0.00054859,
        "meta_mean_motion_dot": 1.934e-05,
        "meta_mean_motion_ddot": 0,
        "tle_line1": "1 37312U 93036BKC 25335.96822294  .00001934  00000+0  54859-3 0  9997",
        "tle_line2": "2 37312  74.0322 224.2849 0018130 328.5090  31.4981 14.46068462860086"
      },
      "geometry": {
        "type": "Point",
        "coordinates": [
          -137.4071180022016,
          -2.755435199299553
        ]
      }
    },
    {
      "type": "Feature",
      "properties": {
        "norad_id": 37316,
        "name": "COSMOS 2251 DEB",
        "group": "cosmos-2251-debris",
        "lat": -36.45582778675414,
        "lon": -125.96653850134196,
        "alt_km": 596.6401597528447,
        "timestamp": "2025-12-02T10:50:47.673390+00:00",
        "meta_object_name": "COSMOS 2251 DEB",
        "meta_object_id": "1993-036BKG",
        "meta_epoch": "2025-12-01T11:22:22.057824",
        "meta_mean_motion": 14.93706807,
        "meta_eccentricity": 0.00296758,
        "meta_inclination": 74.021,
        "meta_ra_of_asc_node": 43.7815,
        "meta_arg_of_pericenter": 117.7256,
        "meta_mean_anomaly": 242.6944,
        "meta_ephemeris_type": 0,
        "meta_classification_type": "U",
        "meta_norad_cat_id": 37316,
        "meta_element_set_no": 999,
        "meta_rev_at_epoch": 85975,
        "meta_bstar": 0.0030587091,
        "meta_mean_motion_dot": 0.00032769,
        "meta_mean_motion_ddot": 0,
        "tle_line1": "1 37316U 93036BKG 25335.47386641  .00032769  00000+0  30587-2 0  9999",
        "tle_line2": "2 37316  74.0210  43.7815 0029675 117.7256 242.6944 14.93706807859752"
      },
      "geometry": {
        "type": "Point",
        "coordinates": [
          -125.96653850134196,
          -36.45582778675414
        ]
      }
    },
    {
      "type": "Feature",
      "properties": {
        "norad_id": 37320,
        "name": "COSMOS 2251 DEB",
        "group": "cosmos-2251-debris",
        "lat": -23.66246224379972,
        "lon": 65.57250762826119,
        "alt_km": 656.8471379405846,
        "timestamp": "2025-12-02T10:50:47.673400+00:00",
        "meta_object_name": "COSMOS 2251 DEB",
        "meta_object_id": "1993-036BKL",
        "meta_epoch": "2025-12-02T00:10:39.701280",
        "meta_mean_motion": 14.78545682,
        "meta_eccentricity": 0.0047026,
        "meta_inclination": 74.0466,
        "meta_ra_of_asc_node": 239.2444,
        "meta_arg_of_pericenter": 328.4287,
        "meta_mean_anomaly": 31.4068,
        "meta_ephemeris_type": 0,
        "meta_classification_type": "U",
        "meta_norad_cat_id": 37320,
        "meta_element_set_no": 999,
        "meta_rev_at_epoch": 65988,
        "meta_bstar": 0.0011434,
        "meta_mean_motion_dot": 8.49e-05,
        "meta_mean_motion_ddot": 0,
        "tle_line1": "1 37320U 93036BKL 25336.00740395  .00008490  00000+0  11434-2 0  9998",
        "tle_line2": "2 37320  74.0466 239.2444 0047026 328.4287  31.4068 14.78545682659883"
      },
      "geometry": {
        "type": "Point",
        "coordinates": [
          65.57250762826119,
          -23.66246224379972
        ]
      }
    },
    {
      "type": "Feature",
      "properties": {
        "norad_id": 37326,
        "name": "COSMOS 2251 DEB",
        "group": "cosmos-2251-debris",
        "lat": -33.48716492119098,
        "lon": -16.53162144519458,
        "alt_km": 731.2394403970893,
        "timestamp": "2025-12-02T10:50:47.673410+00:00",
        "meta_object_name": "COSMOS 2251 DEB",
        "meta_object_id": "1993-036BKS",
        "meta_epoch": "2025-11-27T19:17:38.237856",
        "meta_mean_motion": 14.61468685,
        "meta_eccentricity": 0.00552422,
        "meta_inclination": 74.0262,
        "meta_ra_of_asc_node": 3.2841,
        "meta_arg_of_pericenter": 136.8831,
        "meta_mean_anomaly": 223.6683,
        "meta_ephemeris_type": 0,
        "meta_classification_type": "U",
        "meta_norad_cat_id": 37326,
        "meta_element_set_no": 999,
        "meta_rev_at_epoch": 85265,
        "meta_bstar": 0.00046910947,
        "meta_mean_motion_dot": 2.345e-05,
        "meta_mean_motion_ddot": 0,
        "tle_line1": "1 37326U 93036BKS 25331.80391479  .00002345  00000+0  46911-3 0  9994",
        "tle_line2": "2 37326  74.0262   3.2841 0055242 136.8831 223.6683 14.61468685852655"
      },
      "geometry": {
        "type": "Point",
        "coordinates": [
          -16.53162144519458,
          -33.48716492119098
        ]
      }
    },
    {
      "type": "Feature",
      "properties": {
        "norad_id": 37330,
        "name": "COSMOS 2251 DEB",
        "group": "cosmos-2251-debris",
        "lat": 34.512994092693745,
        "lon": -33.90622081828603,
        "alt_km": 718.2102249019308,
        "timestamp": "2025-12-02T10:50:47.673420+00:00",
        "meta_object_name": "COSMOS 2251 DEB",
        "meta_object_id": "1993-036BKW",
        "meta_epoch": "2025-12-01T16:35:02.444064",
        "meta_mean_motion": 14.59484724,
        "meta_eccentricity": 0.0057521,
        "meta_inclination": 74.017,
        "meta_ra_of_asc_node": 316.1795,
        "meta_arg_of_pericenter": 167.7697,
        "meta_mean_anomaly": 192.4881,
        "meta_ephemeris_type": 0,
        "meta_classification_type": "U",
        "meta_norad_cat_id": 37330,
        "meta_element_set_no": 999,
        "meta_rev_at_epoch": 86207,
        "meta_bstar": 0.00032462,
        "meta_mean_motion_dot": 1.545e-05,
        "meta_mean_motion_ddot": 0,
        "tle_line1": "1 37330U 93036BKW 25335.69100051  .00001545  00000+0  32462-3 0  9991",
        "tle_line2": "2 37330  74.0170 316.1795 0057521 167.7697 192.4881 14.59484724862076"
      },
      "geometry": {
        "type": "Point",
        "coordinates": [
          -33.90622081828603,
          34.512994092693745
        ]
      }
    },
    {
      "type": "Feature",
      "properties": {
        "norad_id": 37331,
        "name": "COSMOS 2251 DEB",
        "group": "cosmos-2251-debris",
        "lat": -13.616051699127992,
        "lon": 82.71662224714024,
        "alt_km": 798.0977163382049,
        "timestamp": "2025-12-02T10:50:47.673430+00:00",
        "meta_object_name": "COSMOS 2251 DEB",
        "meta_object_id": "1993-036BKX",
        "meta_epoch": "2025-12-01T01:26:56.105376",
        "meta_mean_motion": 14.34963315,
        "meta_eccentricity": 0.0055446,
        "meta_inclination": 74.0748,
        "meta_ra_of_asc_node": 89.2257,
        "meta_arg_of_pericenter": 107.2854,
        "meta_mean_anomaly": 253.4376,
        "meta_ephemeris_type": 0,
        "meta_classification_type": "U",
        "meta_norad_cat_id": 37331,
        "meta_element_set_no": 999,
        "meta_rev_at_epoch": 84592,
        "meta_bstar": 0.00070853607,
        "meta_mean_motion_dot": 2.027e-05,
        "meta_mean_motion_ddot": 0,
        "tle_line1": "1 37331U 93036BKX 25335.06037159  .00002027  00000+0  70854-3 0  9994",
        "tle_line2": "2 37331  74.0748  89.2257 0055446 107.2854 253.4376 14.34963315845920"
      },
      "geometry": {
        "type": "Point",
        "coordinates": [
          82.71662224714024,
          -13.616051699127992
        ]
      }
    },
    {
      "type": "Feature",
      "properties": {
        "norad_id": 37336,
        "name": "COSMOS 2251 DEB",
        "group": "cosmos-2251-debris",
        "lat": 47.17550763534422,
        "lon": 7.980375521917408,
        "alt_km": 758.9066861593556,
        "timestamp": "2025-12-02T10:50:47.673441+00:00",
        "meta_object_name": "COSMOS 2251 DEB",
        "meta_object_id": "1993-036BLC",
        "meta_epoch": "2025-12-01T07:48:14.136768",
        "meta_mean_motion": 14.32750931,
        "meta_eccentricity": 0.00286304,
        "meta_inclination": 74.0414,
        "meta_ra_of_asc_node": 352.0528,
        "meta_arg_of_pericenter": 73.4193,
        "meta_mean_anomaly": 287.0099,
        "meta_ephemeris_type": 0,
        "meta_classification_type": "U",
        "meta_norad_cat_id": 37336,
        "meta_element_set_no": 999,
        "meta_rev_at_epoch": 64956,
        "meta_bstar": 8.422431e-05,
        "meta_mean_motion_dot": 2.05e-06,
        "meta_mean_motion_ddot": 0,
        "tle_line1": "1 37336U 93036BLC 25335.32516362  .00000205  00000+0  84224-4 0  9999",
        "tle_line2": "2 37336  74.0414 352.0528 0028630  73.4193 287.0099 14.32750931649565"
      },
      "geometry": {
        "type": "Point",
        "coordinates": [
          7.980375521917408,
          47.17550763534422
        ]
      }
    }
  ]
}